{"type": "FeatureCollection", "features": [{"type": "Feature", "properties": {"norad_id": 28890, "name": "BEIJING 1", "group": "dmc", "lat": -13.763121028628458, "lon": -55.80162720728796, "alt_km": 686.4146363593054, "timestamp": "2025-12-24T16:52:41.167409+00:00", "meta": {"OBJECT_NAME": "BEIJING 1", "OBJECT_ID": "2005-043A", "EPOCH": "2025-12-24T07:47:30.466752", "MEAN_MOTION": 14.63375374, "ECCENTRICITY": 0.00158125, "INCLINATION": 98.2665, "RA_OF_ASC_NODE": 125.8597, "ARG_OF_PERICENTER": 107.3104, "MEAN_ANOMALY": 252.9829, "EPHEMERIS_TYPE": 0, "CLASSIFICATION_TYPE": "U", "NORAD_CAT_ID": 28890, "ELEMENT_SET_NO": 999, "REV_AT_EPOCH": 7507, "BSTAR": 3.9729131e-05, "MEAN_MOTION_DOT": 1.57e-06, "MEAN_MOTION_DDOT": 0}, "tle": {"line1": "1 28890U 05043A   25358.32465818  .00000157  00000+0  39729-4 0  9995", "line2": "2 28890  98.2665 125.8597 0015812 107.3104 252.9829 14.63375374 75074"}}, "geometry": {"type": "Point", "coordinates": [-55.80162720728796, -13.763121028628458]}}, {"type": "Feature", "properties": {"norad_id": 33320, "name": "HUANJING 1A (HJ-1A)", "group": "dmc", "lat": 2.1868828305489925, "lon": -13.791782020580914, "alt_km": 607.8181965117083, "timestamp": "2025-12-24T16:52:41.167454+00:00", "meta": {"OBJECT_NAME": "HUANJING 1A (HJ-1A)", "OBJECT_ID": "2008-041A", "EPOCH": "2025-12-24T07:09:18.126144", "MEAN_MOTION": 14.83428691, "ECCENTRICITY": 0.00193171, "INCLINATION": 97.6547, "RA_OF_ASC_NODE": 346.1142, "ARG_OF_PERICENTER": 357.6206, "MEAN_ANOMALY": 2.4913, "EPHEMERIS_TYPE": 0, "CLASSIFICATION_TYPE": "U", "NORAD_CAT_ID": 33320, "ELEMENT_SET_NO": 999, "REV_AT_EPOCH": 93247, "BSTAR": 0.00018243951, "MEAN_MOTION_DOT": 1.451e-05, "MEAN_MOTION_DDOT": 0}, "tle": {"line1": "1 33320U 08041A   25358.29812646  .00001451  00000+0  18244-3 0  9997", "line2": "2 33320  97.6547 346.1142 0019317 357.6206   2.4913 14.83428691932472"}}, "geometry": {"type": "Point", "coordinates": [-13.791782020580914, 2.1868828305489925]}}, {"type": "Feature", "properties": {"norad_id": 33321, "name": "HUANJING 1B (HJ-1B)", "group": "dmc", "lat": -18.69298027535486, "lon": 167.5647384997835, "alt_km": 650.4505419663492, "timestamp": "2025-12-24T16:52:41.167469+00:00", "meta": {"OBJECT_NAME": "HUANJING 1B (HJ-1B)", "OBJECT_ID": "2008-041B", "EPOCH": "2025-12-24T06:16:09.920352", "MEAN_MOTION": 14.82850093, "ECCENTRICITY": 0.00377933, "INCLINATION": 97.6403, "RA_OF_ASC_NODE": 349.7454, "ARG_OF_PERICENTER": 39.1893, "MEAN_ANOMALY": 321.2047, "EPHEMERIS_TYPE": 0, "CLASSIFICATION_TYPE": "U", "NORAD_CAT_ID": 33321, "ELEMENT_SET_NO": 999, "REV_AT_EPOCH": 93248, "BSTAR": 0.00019406429, "MEAN_MOTION_DOT": 1.539e-05, "MEAN_MOTION_DDOT": 0}, "tle": {"line1": "1 33321U 08041B   25358.26122593  .00001539  00000+0  19406-3 0  9998", "line2": "2 33321  97.6403 349.7454 0037793  39.1893 321.2047 14.82850093932486"}}, "geometry": {"type": "Point", "coordinates": [167.5647384997835, -18.69298027535486]}}, {"type": "Feature", "properties": {"norad_id": 33446, "name": "YAOGAN-4", "group": "dmc", "lat": 73.38608505743771, "lon": 136.4960100902509, "alt_km": 622.8148118761883, "timestamp": "2025-12-24T16:52:41.167482+00:00", "meta": {"OBJECT_NAME": "YAOGAN-4", "OBJECT_ID": "2008-061A", "EPOCH": "2025-12-24T06:41:21.910848", "MEAN_MOTION": 14.82714813, "ECCENTRICITY": 0.00129966, "INCLINATION": 97.9197, "RA_OF_ASC_NODE": 288.2655, "ARG_OF_PERICENTER": 282.4259, "MEAN_ANOMALY": 77.55, "EPHEMERIS_TYPE": 0, "CLASSIFICATION_TYPE": "U", "NORAD_CAT_ID": 33446, "ELEMENT_SET_NO": 999, "REV_AT_EPOCH": 91974, "BSTAR": 0.0001734889, "MEAN_MOTION_DOT": 1.348e-05, "MEAN_MOTION_DDOT": 0}, "tle": {"line1": "1 33446U 08061A   25358.27872582  .00001348  00000+0  17349-3 0  9991", "line2": "2 33446  97.9197 288.2655 0012996 282.4259  77.5500 14.82714813919742"}}, "geometry": {"type": "Point", "coordinates": [136.4960100902509, 73.38608505743771]}}, {"type": "Feature", "properties": {"norad_id": 35681, "name": "DEIMOS-1", "group": "dmc", "lat": -78.50557702164171, "lon": -63.06208861869349, "alt_km": 654.2284517166527, "timestamp": "2025-12-24T16:52:41.167495+00:00", "meta": {"OBJECT_NAME": "DEIMOS-1", "OBJECT_ID": "2009-041A", "EPOCH": "2025-12-24T07:33:20.179296", "MEAN_MOTION": 14.74969193, "ECCENTRICITY": 0.00025047, "INCLINATION": 97.7155, "RA_OF_ASC_NODE": 158.3796, "ARG_OF_PERICENTER": 60.8153, "MEAN_ANOMALY": 299.3307, "EPHEMERIS_TYPE": 0, "CLASSIFICATION_TYPE": "U", "NORAD_CAT_ID": 35681, "ELEMENT_SET_NO": 999, "REV_AT_EPOCH": 88110, "BSTAR": 0.00010490674, "MEAN_MOTION_DOT": 6.58e-06, "MEAN_MOTION_DDOT": 0}, "tle": {"line1": "1 35681U 09041A   25358.31481689  .00000658  00000+0  10491-3 0  9996", "line2": "2 35681  97.7155 158.3796 0002504  60.8153 299.3307 14.74969193881106"}}, "geometry": {"type": "Point", "coordinates": [-63.06208861869349, -78.50557702164171]}}, {"type": "Feature", "properties": {"norad_id": 35683, "name": "UK-DMC 2", "group": "dmc", "lat": -53.74504297692827, "lon": 144.12258424855884, "alt_km": 651.0241513682995, "timestamp": "2025-12-24T16:52:41.167507+00:00", "meta": {"OBJECT_NAME": "UK-DMC 2", "OBJECT_ID": "2009-041C", "EPOCH": "2025-12-24T07:21:37.101888", "MEAN_MOTION": 14.75644939, "ECCENTRICITY": 0.00015596, "INCLINATION": 97.8573, "RA_OF_ASC_NODE": 132.8835, "ARG_OF_PERICENTER": 92.6805, "MEAN_ANOMALY": 267.4583, "EPHEMERIS_TYPE": 0, "CLASSIFICATION_TYPE": "U", "NORAD_CAT_ID": 35683, "ELEMENT_SET_NO": 999, "REV_AT_EPOCH": 88077, "BSTAR": 0.00013693875, "MEAN_MOTION_DOT": 8.86e-06, "MEAN_MOTION_DDOT": 0}, "tle": {"line1": "1 35683U 09041C   25358.30667942  .00000886  00000+0  13694-3 0  9996", "line2": "2 35683  97.8573 132.8835 0001559  92.6805 267.4583 14.75644939880773"}}, "geometry": {"type": "Point", "coordinates": [144.12258424855884, -53.74504297692827]}}, {"type": "Feature", "properties": {"norad_id": 40715, "name": "DMC3-FM1", "group": "dmc", "lat": 55.73561844623922, "lon": -145.94754121190257, "alt_km": 609.1355841960903, "timestamp": "2025-12-24T16:52:41.167520+00:00", "meta": {"OBJECT_NAME": "DMC3-FM1", "OBJECT_ID": "2015-032A", "EPOCH": "2025-12-24T06:55:28.567776", "MEAN_MOTION": 14.85458614, "ECCENTRICITY": 0.00040419, "INCLINATION": 97.6683, "RA_OF_ASC_NODE": 225.0599, "ARG_OF_PERICENTER": 273.9267, "MEAN_ANOMALY": 86.1486, "EPHEMERIS_TYPE": 0, "CLASSIFICATION_TYPE": "U", "NORAD_CAT_ID": 40715, "ELEMENT_SET_NO": 999, "REV_AT_EPOCH": 56394, "BSTAR": 5.7021766e-05, "MEAN_MOTION_DOT": 4.4e-06, "MEAN_MOTION_DDOT": 0}, "tle": {"line1": "1 40715U 15032A   25358.28852509  .00000440  00000+0  57022-4 0  9997", "line2": "2 40715  97.6683 225.0599 0004041 273.9267  86.1486 14.85458614563941"}}, "geometry": {"type": "Point", "coordinates": [-145.94754121190257, 55.73561844623922]}}, {"type": "Feature", "properties": {"norad_id": 40716, "name": "DMC3-FM2", "group": "dmc", "lat": -62.645862647180905, "lon": -117.981219884728, "alt_km": 616.2233174413159, "timestamp": "2025-12-24T16:52:41.167532+00:00", "meta": {"OBJECT_NAME": "DMC3-FM2", "OBJECT_ID": "2015-032B", "EPOCH": "2025-12-24T05:50:51.086112", "MEAN_MOTION": 14.85459118, "ECCENTRICITY": 0.00046834, "INCLINATION": 97.6739, "RA_OF_ASC_NODE": 226.4684, "ARG_OF_PERICENTER": 280.378, "MEAN_ANOMALY": 79.6907, "EPHEMERIS_TYPE": 0, "CLASSIFICATION_TYPE": "U", "NORAD_CAT_ID": 40716, "ELEMENT_SET_NO": 999, "REV_AT_EPOCH": 56393, "BSTAR": 6.8573428e-05, "MEAN_MOTION_DOT": 5.4e-06, "MEAN_MOTION_DDOT": 0}, "tle": {"line1": "1 40716U 15032B   25358.24364683  .00000540  00000+0  68573-4 0  9999", "line2": "2 40716  97.6739 226.4684 0004683 280.3780  79.6907 14.85459118563932"}}, "geometry": {"type": "Point", "coordinates": [-117.981219884728, -62.645862647180905]}}, {"type": "Feature", "properties": {"norad_id": 40717, "name": "DMC3-FM3", "group": "dmc", "lat": -0.32817718397932044, "lon": 48.50836242534907, "alt_km": 615.7027398375367, "timestamp": "2025-12-24T16:52:41.167543+00:00", "meta": {"OBJECT_NAME": "DMC3-FM3", "OBJECT_ID": "2015-032C", "EPOCH": "2025-12-24T06:22:08.192640", "MEAN_MOTION": 14.85445838, "ECCENTRICITY": 0.00039711, "INCLINATION": 97.6793, "RA_OF_ASC_NODE": 228.1303, "ARG_OF_PERICENTER": 280.7987, "MEAN_ANOMALY": 79.2781, "EPHEMERIS_TYPE": 0, "CLASSIFICATION_TYPE": "U", "NORAD_CAT_ID": 40717, "ELEMENT_SET_NO": 999, "REV_AT_EPOCH": 56394, "BSTAR": 0.00011096377, "MEAN_MOTION_DOT": 9.05e-06, "MEAN_MOTION_DDOT": 0}, "tle": {"line1": "1 40717U 15032C   25358.26537260  .00000905  00000+0  11096-3 0  9997", "line2": "2 40717  97.6793 228.1303 0003971 280.7987  79.2781 14.85445838563943"}}, "geometry": {"type": "Point", "coordinates": [48.50836242534907, -0.32817718397932044]}}]}